IRIDIUM 57 [-]          
1 25273U 98019B   23271.90413569  .00000628  00000+0  21407-3 0  9990
2 25273  86.3966  47.9132 0002106  92.1671 267.9766 14.34911187335014
IRIDIUM 63 [-]          
1 25286U 98021B   23271.74432666  .00000640  00000+0  21618-3 0  9996
2 25286  86.4033 344.9522 0002315  96.4788 263.6672 14.35421132333806
IRIDIUM 69 [-]          
1 25319U 98026A   23271.74274974  .00000973  00000+0  30564-3 0  9993
2 25319  86.4047   0.0860 0000693   8.9554 351.1657 14.39582902332755
IRIDIUM 71 [-]          
1 25320U 98026B   23272.28829628  .00000798  00000+0  24777-3 0  9991
2 25320  86.4038 354.6949 0002814  44.6893 315.4533 14.39921830333599
IRIDIUM 73 [-]          
1 25344U 98032C   23271.63406570  .00000780  00000+0  19605-3 0  9994
2 25344  86.4405 312.8428 0001798  78.8801 281.2605 14.50036990339570
IRIDIUM 82 [-]          
1 25467U 98051A   23272.38911429  .00016505  00000+0  97347-3 0  9999
2 25467  86.3949  48.7961 0149544  96.7792 265.0483 15.02394614329082
IRIDIUM 2 [-]           
1 25527U 98066A   23271.57148100  .00033077  00000+0  81341-3 0  9990
2 25527  85.5152 108.6787 0003427 255.7922 104.2950 15.40477575367051
